ALOS-2                  
1 39766U 14029A   26165.29858508  .00001633  00000+0  22550-3 0  9991
2 39766  97.9219 262.5030 0001613  92.2427 267.8969 14.79480022651157
KAZEOSAT 2              
1 40010U 14033A   26165.26618015  .00000890  00000+0  10897-3 0  9999
2 40010  97.5409   5.0331 0008161 340.1986  19.8912 14.85468952648527
HODOYOSHI-4             
1 40011U 14033B   26165.27722571  .00001809  00000+0  20133-3 0  9999
2 40011  97.5450 350.2405 0022624 318.6640  41.2865 14.88124694648372
DEIMOS-2                
1 40013U 14033D   26165.23565593  .00000761  00000+0  77036-4 0  9997
2 40013  97.5841  39.8288 0001700  48.9529 311.1839 14.93717057637283
HODOYOSHI-3             
1 40015U 14033F   26165.28837301  .00000954  00000+0  11589-3 0  9997
2 40015  97.6414 328.4456 0032971   6.8786 353.2875 14.85383253647194
SPOT 7                  
1 40053U 14034A   26165.30503684  .00000387  00000+0  88180-4 0  9999
2 40053  98.0635 227.8707 0001192  91.2124 268.9214 14.60956102636719
SKYSAT-B                
1 40072U 14037D   26165.23364754  .00001242  00000+0  14198-3 0  9996
2 40072  98.3838 124.0302 0004287 294.5665  65.5103 14.88021030645523
WORLDVIEW-3 (WV-3)      
1 40115U 14048A   26165.27000633  .00000764  00000+0  95807-4 0  9998
2 40115  97.8566 240.1431 0001216  29.6508 330.4776 14.85017726641472
GAOFEN-2                
1 40118U 14049A   26165.27093765  .00000672  00000+0  93876-4 0  9992
2 40118  98.0115 229.4805 0006038 237.9879 122.0746 14.80895722638805
YAOGAN-21               
1 40143U 14053A   26165.27806155  .00007903  00000+0  30646-3 0  9999
2 40143  97.1478 205.6386 0010002 101.7790 258.4572 15.26336367654514
YAOGAN-22               
1 40275U 14063A   26165.14364616 -.00000031  00000+0  41264-4 0  9998
2 40275 100.7720 316.3664 0006272 192.1229 167.9732 13.15530979559411
ASNARO                  
1 40298U 14070A   26165.26158543  .00006746  00000+0  32171-3 0  9998
2 40298  97.3462 241.4546 0005425 173.4653 186.6654 15.19396010643562
YAOGAN-24               
1 40310U 14072A   26165.30306017  .00000732  00000+0  11343-3 0  9998
2 40310  98.1478 302.6165 0012524 273.8841  86.0936 14.76220356623297
CBERS 4                 
1 40336U 14079A   26165.31883580  .00000163  00000+0  71204-4 0  9990
2 40336  98.3539 222.2403 0001918  66.4507 293.6880 14.35508465603542
YAOGAN-26               
1 40362U 14088A   26165.28802553  .00026501  00000+0  52077-3 0  9996
2 40362  97.0633 165.5651 0006152  73.5404 286.6523 15.47250725637254
SMAP                    
1 40376U 15003A   26165.27646023  .00000384  00000+0  83480-4 0  9990
2 40376  98.1276 172.4122 0001302  95.0769 265.0581 14.63364329607197
KOMPSAT-3A              
1 40536U 15014A   26165.27967108  .00023008  00000+0  33480-3 0  9992
2 40536  97.6880 156.4293 0056278 185.0449 175.0244 15.53871941621362
SENTINEL-2A             
1 40697U 15028A   26165.27762267 -.00000097  00000+0 -20534-4 0  9996
2 40697  98.5689 240.1703 0001100  91.6724 268.4585 14.30813890573315
GAOFEN-8                
1 40701U 15030A   26165.30441134  .00011863  00000+0  24607-3 0  9991
2 40701  97.6902 358.5015 0008494 196.9611 163.1355 15.45849925611006
CARBONITE 1 (CBNT-1)    
1 40718U 15032D   26165.28234300  .00001115  00000+0  14130-3 0  9992
2 40718  97.6501 343.4707 0013299 308.6191  51.3833 14.83578536588914
YAOGAN-27               
1 40878U 15040A   26165.29180907 -.00000056  00000+0 -34744-4 0  9991
2 40878 100.1146 151.8000 0007572 217.9148 142.1433 13.16070394517285
GAOFEN-9 01             
1 40894U 15047A   26165.29598390  .00000899  00000+0  11645-3 0  9992
2 40894  97.6275 201.1221 0028199 146.9725 213.3258 14.82878763579767
YAOGAN-28               
1 41026U 15064A   26165.30916407  .00006194  00000+0  23338-3 0  9990
2 41026  97.3068 303.6292 0010366 193.5098 166.5866 15.27388984590247
YAOGAN-29               
1 41038U 15069A   26165.27668307 -.00000198  00000+0 -17714-4 0  9999
2 41038  98.0031 193.9048 0002740  58.6606 301.4875 14.83081238570195
KENT RIDGE 1            
1 41167U 15077B   26164.69267216  .00004186  00000+0  14066-3 0  9995
2 41167  14.9789 291.9825 0008249 189.0994 170.9179 15.23112968580564
GAOFEN-4                
1 41194U 15083A   26165.10947455 -.00000326  00000+0  00000+0 0  9991
2 41194   0.3481  83.8704 0004366 114.2838 209.3813  1.00270299 38493
JASON-3                 
1 41240U 16002A   26165.28418583 -.00000055  00000+0  27159-4 0  9997
2 41240  66.0400 131.9383 0008548 272.9363  87.0678 12.87628034486874
SENTINEL-3A             
1 41335U 16011A   26165.27110483  .00000102  00000+0  59984-4 0  9992
2 41335  98.6249 232.6965 0001387 102.6045 257.5291 14.26739240537640
ZIYUAN 3-02 (ZY 3-02)   
1 41556U 16033A   26165.29590288  .00005298  00000+0  23845-3 0  9995
2 41556  97.3842 241.1256 0011260 301.3530  58.6604 15.21456592557547
CARTOSAT-2C             
1 41599U 16040A   26165.22833810  .00004247  00000+0  20422-3 0  9995
2 41599  97.4493 225.2468 0010352 140.6492 219.5496 15.19297587553263
