OBJECT_NAME,OBJECT_ID,EPOCH,MEAN_MOTION,ECCENTRICITY,INCLINATION,RA_OF_ASC_NODE,ARG_OF_PERICENTER,MEAN_ANOMALY,EPHEMERIS_TYPE,CLASSIFICATION_TYPE,NORAD_CAT_ID,ELEMENT_SET_NO,REV_AT_EPOCH,BSTAR,MEAN_MOTION_DOT,MEAN_MOTION_DDOT
ALOS-2,2014-029A,2026-06-14T07:09:57.750912,14.79480022,.00016133,97.9219,262.5030,92.2427,267.8969,0,U,39766,999,65115,.22549927E-3,.1633E-4,0
KAZEOSAT 2,2014-033A,2026-06-14T06:23:17.964960,14.85468952,.00081611,97.5409,5.0331,340.1986,19.8912,0,U,40010,999,64852,.10897037E-3,.89E-5,0
HODOYOSHI-4,2014-033B,2026-06-14T06:39:12.301344,14.88124694,.00226245,97.5450,350.2405,318.6640,41.2865,0,U,40011,999,64837,.2013307E-3,.1809E-4,0
DEIMOS-2,2014-033D,2026-06-14T05:39:20.672352,14.93717057,.00017007,97.5841,39.8288,48.9529,311.1839,0,U,40013,999,63728,.77036441E-4,.761E-5,0
HODOYOSHI-3,2014-033F,2026-06-14T06:55:15.428064,14.85383253,.00329718,97.6414,328.4456,6.8786,353.2875,0,U,40015,999,64719,.115893E-3,.954E-5,0
SPOT 7,2014-034A,2026-06-14T07:19:15.182976,14.60956102,.00011926,98.0635,227.8707,91.2124,268.9214,0,U,40053,999,63671,.88179573E-4,.387E-5,0
SKYSAT-B,2014-037D,2026-06-14T05:36:27.147456,14.88021030,.00042876,98.3838,124.0302,294.5665,65.5103,0,U,40072,999,64552,.14197806E-3,.1242E-4,0
WORLDVIEW-3 (WV-3),2014-048A,2026-06-14T06:28:48.546912,14.85017726,.00012161,97.8566,240.1431,29.6508,330.4776,0,U,40115,999,64147,.95807122E-4,.764E-5,0
GAOFEN-2,2014-049A,2026-06-14T06:30:09.012960,14.80895722,.00060381,98.0115,229.4805,237.9879,122.0746,0,U,40118,999,63880,.93876143E-4,.672E-5,0
YAOGAN-21,2014-053A,2026-06-14T06:40:24.517920,15.26336367,.00100027,97.1478,205.6386,101.7790,258.4572,0,U,40143,999,65451,.30645996E-3,.7903E-4,0
YAOGAN-22,2014-063A,2026-06-14T03:26:51.028224,13.15530979,.00062722,100.7720,316.3664,192.1229,167.9732,0,U,40275,999,55941,.41264111E-4,-.31E-6,0
ASNARO,2014-070A,2026-06-14T06:16:40.981152,15.19396010,.00054257,97.3462,241.4546,173.4653,186.6654,0,U,40298,999,64356,.32171301E-3,.6746E-4,0
YAOGAN-24,2014-072A,2026-06-14T07:16:24.398688,14.76220356,.00125244,98.1478,302.6165,273.8841,86.0936,0,U,40310,999,62329,.11343234E-3,.732E-5,0
CBERS 4,2014-079A,2026-06-14T07:39:07.413120,14.35508465,.00019187,98.3539,222.2403,66.4507,293.6880,0,U,40336,999,60354,.7120429E-4,.163E-5,0
YAOGAN-26,2014-088A,2026-06-14T06:54:45.405792,15.47250725,.00061527,97.0633,165.5651,73.5404,286.6523,0,U,40362,999,63725,.52077118E-3,.26501E-3,0
SMAP,2015-003A,2026-06-14T06:38:06.163872,14.63364329,.00013022,98.1276,172.4122,95.0769,265.0581,0,U,40376,999,60719,.83480102E-4,.384E-5,0
KOMPSAT-3A,2015-014A,2026-06-14T06:42:43.581312,15.53871941,.00562782,97.6880,156.4293,185.0449,175.0244,0,U,40536,999,62136,.33479515E-3,.23008E-3,0
SENTINEL-2A,2015-028A,2026-06-14T06:39:46.598688,14.30813890,.00011008,98.5689,240.1703,91.6724,268.4585,0,U,40697,999,57331,-.20533696E-4,-.97E-6,0
GAOFEN-8,2015-030A,2026-06-14T07:18:21.139776,15.45849925,.00084945,97.6902,358.5015,196.9611,163.1355,0,U,40701,999,61100,.24606758E-3,.11863E-3,0
CARBONITE 1 (CBNT-1),2015-032D,2026-06-14T06:46:34.435200,14.83578536,.00132993,97.6501,343.4707,308.6191,51.3833,0,U,40718,999,58891,.14129785E-3,.1115E-4,0
YAOGAN-27,2015-040A,2026-06-14T07:00:12.303648,13.16070394,.00075728,100.1146,151.8000,217.9148,142.1433,0,U,40878,999,51728,-.34744477E-4,-.56E-6,0
GAOFEN-9 01,2015-047A,2026-06-14T07:06:13.008960,14.82878763,.0028199,97.6275,201.1221,146.9725,213.3258,0,U,40894,999,57976,.11645337E-3,.899E-5,0
YAOGAN-28,2015-064A,2026-06-14T07:25:11.775648,15.27388984,.00103665,97.3068,303.6292,193.5098,166.5866,0,U,41026,999,59024,.23338258E-3,.6194E-4,0
YAOGAN-29,2015-069A,2026-06-14T06:38:25.417248,14.83081238,.00027401,98.0031,193.9048,58.6606,301.4875,0,U,41038,999,57019,-.17713659E-4,-.198E-5,0
KENT RIDGE 1,2015-077B,2026-06-13T16:37:26.874624,15.23112968,.0008249,14.9789,291.9825,189.0994,170.9179,0,U,41167,999,58056,.14065697E-3,.4186E-4,0
GAOFEN-4,2015-083A,2026-06-14T02:37:38.601120,1.00270299,.00043663,0.3481,83.8704,114.2838,209.3813,0,U,41194,999,3849,0,-.326E-5,0
JASON-3,2016-002A,2026-06-14T06:49:13.655712,12.87628034,.00085487,66.0400,131.9383,272.9363,87.0678,0,U,41240,999,48687,.27158969E-4,-.55E-6,0
SENTINEL-3A,2016-011A,2026-06-14T06:30:23.457312,14.26739240,.00013876,98.6249,232.6965,102.6045,257.5291,0,U,41335,999,53764,.59984492E-4,.102E-5,0
ZIYUAN 3-02 (ZY 3-02),2016-033A,2026-06-14T07:06:06.008832,15.21456592,.001126,97.3842,241.1256,301.3530,58.6604,0,U,41556,999,55754,.2384522E-3,.5298E-4,0
CARTOSAT-2C,2016-040A,2026-06-14T05:28:48.411840,15.19297587,.00103528,97.4493,225.2468,140.6492,219.5496,0,U,41599,999,55326,.20422215E-3,.4247E-4,0
